NORAD_CAT_ID,OBJECT_NAME,OBJECT_TYPE,EPOCH,MEAN_MOTION,ECCENTRICITY,INCLINATION,RA_OF_ASC_NODE,ARG_OF_PERICENTER,MEAN_ANOMALY,BSTAR,MEAN_MOTION_DOT,MEAN_MOTION_DDOT,TLE_LINE0,TLE_LINE1,TLE_LINE2,SEMIMAJOR_AXIS,PERIOD,APOGEE,PERIGEE,DECAYED
51996.0,STARLINK-3538,PAYLOAD,2023-07-24 13:42:42,15.0884231,0.0001383,53.2164,4.7679,112.3836,247.7302,6.0081e-05,6.68e-06,0.0,0 STARLINK-3538,1 51996U 22025AS  23205.57132864  .00000668  00000-0  60081-4 0  9998,2 51996  53.2164   4.7679 0001383 112.3836 247.7302 15.08842310 76128,6917.873,95.437,540.695,538.782,0.0
51996.0,STARLINK-3538,PAYLOAD,2023-07-25 13:33:30,15.08839411,9.13e-05,53.2202,0.3136,64.705,295.4037,4.7787e-05,4.73e-06,0.0,0 STARLINK-3538,1 51996U 22025AS  23206.56493181  .00000473  00000-0  47787-4 0  9992,2 51996  53.2202   0.3136 0000913  64.7050 295.4037 15.08839411 76276,6917.882,95.438,540.379,539.116,0.0
51996.0,STARLINK-3538,PAYLOAD,2023-07-26 13:24:16,15.0884321,0.0001567,53.2213,355.8541,97.7309,262.3861,0.00010625,1.404e-05,0.0,0 STARLINK-3538,1 51996U 22025AS  23207.55852990  .00001404  00000-0  10625-3 0  9994,2 51996  53.2213 355.8541 0001567  97.7309 262.3861 15.08843210 76422,6917.871,95.437,540.82,538.652,0.0
51996.0,STARLINK-3538,PAYLOAD,2023-07-26 19:45:49,15.08849746,0.0001665,53.2214,354.6651,96.9301,263.188,0.00016023,2.264e-05,0.0,0 STARLINK-3538,1 51996U 22025AS  23207.82348427  .00002264  00000-0  16023-3 0  9992,2 51996  53.2214 354.6651 0001665  96.9301 263.1880 15.08849746 76468,6917.851,95.437,540.867,538.564,0.0
51996.0,STARLINK-3538,PAYLOAD,2023-07-27 10:04:18,15.08833409,0.0001217,53.2187,351.9846,91.9393,268.1738,-4.3833e-05,-9.85e-06,0.0,0 STARLINK-3538,1 51996U 22025AS  23208.41965591 -.00000985  00000-0 -43833-4 0  9995,2 51996  53.2187 351.9846 0001217  91.9393 268.1738 15.08833409 78077,6917.901,95.438,540.607,538.924,0.0
51996.0,STARLINK-3538,PAYLOAD,2023-07-27 16:25:51,15.08833503,0.0001122,53.2193,350.7952,96.2347,263.8773,1.4008e-06,-2.65e-06,0.0,0 STARLINK-3538,1 51996U 22025AS  23208.68461909 -.00000265  00000-0  14008-5 0  9991,2 51996  53.2193 350.7952 0001122  96.2347 263.8773 15.08833503 76592,6917.9,95.438,540.541,538.989,0.0
51996.0,STARLINK-3538,PAYLOAD,2023-07-27 21:12:00,15.08836154,0.0001088,53.2191,349.9021,95.3945,264.7171,9.8687e-06,-1.31e-06,0.0,0 STARLINK-3538,1 51996U 22025AS  23208.88333735 -.00000131  00000-0  98687-5 0  9995,2 51996  53.2191 349.9021 0001088  95.3945 264.7171 15.08836154 76623,6917.892,95.438,540.51,539.004,0.0
51996.0,STARLINK-3538,PAYLOAD,2023-07-28 16:16:37,15.08845604,0.0001218,53.2194,346.3335,98.0145,262.0985,5.0194e-05,5.11e-06,0.0,0 STARLINK-3538,1 51996U 22025AS  23209.67821313  .00000511  00000-0  50194-4 0  9998,2 51996  53.2194 346.3335 0001218  98.0145 262.0985 15.08845604 78268,6917.863,95.437,540.571,538.886,0.0
51996.0,STARLINK-3538,PAYLOAD,2023-07-29 01:48:56,15.08839869,0.0001212,53.2178,344.5493,83.0004,277.1125,-5.5739e-05,-1.175e-05,0.0,0 STARLINK-3538,1 51996U 22025AS  23210.07565878 -.00001175  00000-0 -55739-4 0  9994,2 51996  53.2178 344.5493 0001212  83.0004 277.1125 15.08839869 78323,6917.881,95.438,540.584,538.907,0.0
51996.0,STARLINK-3538,PAYLOAD,2023-07-29 19:18:10,15.08844504,0.0001277,53.2182,341.2781,83.6335,276.4802,0.00018505,2.659e-05,0.0,0 STARLINK-3538,1 51996U 22025AS  23210.80429261  .00002659  00000-0  18505-3 0  9995,2 51996  53.2182 341.2781 0001277  83.6335 276.4802 15.08844504 78434,6917.867,95.437,540.615,538.848,0.0
51996.0,STARLINK-3538,PAYLOAD,2023-07-30 17:33:34,15.08846252,0.0001078,53.2184,337.1161,92.6816,267.4299,9.8031e-05,1.273e-05,0.0,0 STARLINK-3538,1 51996U 22025AS  23211.73165462  .00001273  00000-0  98031-4 0  9992,2 51996  53.2184 337.1161 0001078  92.6816 267.4299 15.08846252 78572,6917.861,95.437,540.472,538.981,0.0
51996.0,STARLINK-3538,PAYLOAD,2023-07-31 07:52:04,15.08828214,6.65e-05,53.217,334.442,99.95,260.1567,0.00052745,8.114e-05,0.0,0 STARLINK-3538,1 51996U 22025AS  23212.32782666  .00008114  00000-0  52745-3 0  9991,2 51996  53.2170 334.4420 0000665  99.9500 260.1567 15.08828214 78662,6917.916,95.438,540.241,539.321,0.0
51996.0,STARLINK-3538,PAYLOAD,2023-07-31 17:24:21,15.08855629,0.0001058,53.2185,332.6564,82.2312,277.88,8.0243e-05,9.9e-06,0.0,0 STARLINK-3538,1 51996U 22025AS  23212.72524879  .00000990  00000-0  80243-4 0  9994,2 51996  53.2185 332.6564 0001058  82.2312 277.8800 15.08855629 78722,6917.833,95.437,540.43,538.966,0.0
51996.0,STARLINK-3538,PAYLOAD,2023-08-01 17:15:09,15.08843554,9.7e-05,53.2184,328.1969,90.6535,269.4568,6.0503e-05,6.75e-06,0.0,0 STARLINK-3538,1 51996U 22025AS  23213.71885766  .00000675  00000-0  60503-4 0  9996,2 51996  53.2184 328.1969 0000970  90.6535 269.4568 15.08843554 78870,6917.87,95.437,540.406,539.063,0.0
51996.0,STARLINK-3538,PAYLOAD,2023-08-02 07:33:36,15.08852721,9.31e-05,53.2175,325.5205,73.179,286.9304,0.00020241,2.936e-05,0.0,0 STARLINK-3538,1 51996U 22025AS  23214.31500659  .00002936  00000-0  20241-3 0  9994,2 51996  53.2175 325.5205 0000931  73.1790 286.9304 15.08852721 78968,6917.842,95.437,540.351,539.062,0.0
51996.0,STARLINK-3538,PAYLOAD,2023-08-02 13:55:08,15.08868398,0.0001063,53.2182,324.331,85.124,274.9874,0.00041909,6.393e-05,0.0,0 STARLINK-3538,1 51996U 22025AS  23214.57996088  .00006393  00000-0  41909-3 0  9992,2 51996  53.2182 324.3310 0001063  85.1240 274.9874 15.08868398 79002,6917.794,95.436,540.394,538.923,0.0
51996.0,STARLINK-3538,PAYLOAD,2023-08-02 18:41:17,15.08880282,0.0001037,53.2179,323.4385,83.2812,276.8298,0.00060102,9.301e-05,0.0,0 STARLINK-3538,1 51996U 22025AS  23214.77867331  .00009301  00000-0  60102-3 0  9990,2 51996  53.2179 323.4385 0001037  83.2812 276.8298 15.08880282 79035,6917.757,95.435,540.34,538.905,0.0
51996.0,STARLINK-3538,PAYLOAD,2023-08-03 10:35:10,15.0883297,9.61e-05,53.2184,320.4664,80.4023,279.7078,-0.00023469,-4.02e-05,0.0,0 STARLINK-3538,1 51996U 22025AS  23215.44109293 -.00004020  00000-0 -23469-3 0  9991,2 51996  53.2184 320.4664 0000961  80.4023 279.7078 15.08832970 79136,6917.902,95.438,540.432,539.102,0.0
51996.0,STARLINK-3538,PAYLOAD,2023-08-04 12:01:21,15.08836651,0.0001176,53.2177,315.7052,111.3095,248.8023,0.00072298,0.00011236,0.0,0 STARLINK-3538,1 51996U 22025AS  23216.50094030  .00011236  00000-0  72298-3 0  9990,2 51996  53.2177 315.7052 0001176 111.3095 248.8023 15.08836651 79292,6917.891,95.438,540.569,538.942,0.0
51996.0,STARLINK-3538,PAYLOAD,2023-08-05 10:16:45,15.08843705,0.0001231,53.2172,311.5417,110.8829,249.2295,0.00050574,7.771e-05,0.0,0 STARLINK-3538,1 51996U 22025AS  23217.42830157  .00007771  00000-0  50574-3 0  9992,2 51996  53.2172 311.5417 0001231 110.8829 249.2295 15.08843705 79437,6917.869,95.437,540.586,538.882,0.0
51996.0,STARLINK-3538,PAYLOAD,2023-08-06 10:07:32,15.08839708,0.0001226,53.2161,307.0841,87.3701,272.7432,0.00048713,7.473e-05,0.0,0 STARLINK-3538,1 51996U 22025AS  23218.42190458  .00007473  00000-0  48713-3 0  9997,2 51996  53.2161 307.0841 0001226  87.3701 272.7432 15.08839708 79585,6917.881,95.438,540.594,538.898,0.0
51996.0,STARLINK-3538,PAYLOAD,2023-08-06 22:50:37,15.08837522,0.0001005,53.2167,304.7061,91.3689,268.7418,0.00030949,4.641e-05,0.0,0 STARLINK-3538,1 51996U 22025AS  23218.95182571  .00004641  00000-0  30949-3 0  9998,2 51996  53.2167 304.7061 0001005  91.3689 268.7418 15.08837522 79664,6917.888,95.438,540.448,539.058,0.0
51996.0,STARLINK-3538,PAYLOAD,2023-08-07 22:41:24,15.08842039,0.000102,53.2156,300.2445,78.634,281.4767,0.00029393,4.393e-05,0.0,0 STARLINK-3538,1 51996U 22025AS  23219.94542812  .00004393  00000-0  29393-3 0  9991,2 51996  53.2156 300.2445 0001020  78.6340 281.4767 15.08842039 79813,6917.874,95.437,540.445,539.034,0.0
51996.0,STARLINK-3538,PAYLOAD,2023-08-08 22:32:11,15.0884322,0.0001006,53.2155,295.7847,76.9232,283.1872,0.00022069,3.227e-05,0.0,0 STARLINK-3538,1 51996U 22025AS  23220.93902742  .00003227  00000-0  22069-3 0  9992,2 51996  53.2155 295.7847 0001006  76.9232 283.1872 15.08843220 79966,6917.871,95.437,540.431,539.04,0.0
51996.0,STARLINK-3538,PAYLOAD,2023-08-09 09:39:54,15.08834115,0.00011,53.2155,293.7031,74.5796,285.5318,1.2651e-05,-8.6e-07,0.0,0 STARLINK-3538,1 51996U 22025AS  23221.40271231 -.00000086  00000-0  12651-4 0  9995,2 51996  53.2155 293.7031 0001100  74.5796 285.5318 15.08834115 80037,6917.898,95.438,540.524,539.002,0.0
51996.0,STARLINK-3538,PAYLOAD,2023-08-09 16:01:26,15.08841772,8.73e-05,53.2156,292.5111,97.5497,262.5594,0.00012274,1.666e-05,0.0,0 STARLINK-3538,1 51996U 22025AS  23221.66766827  .00001666  00000-0  12274-3 0  9997,2 51996  53.2156 292.5111 0000873  97.5497 262.5594 15.08841772 80075,6917.875,95.437,540.344,539.136,0.0
51996.0,STARLINK-3538,PAYLOAD,2023-08-11 10:56:51,15.08844142,0.0001093,53.2166,284.484,87.2225,272.8892,0.00019342,2.792e-05,0.0,0 STARLINK-3538,1 51996U 22025AS  23223.45614862  .00002792  00000-0  19342-3 0  9991,2 51996  53.2166 284.4840 0001093  87.2225 272.8892 15.08844142 80344,6917.868,95.437,540.489,538.977,0.0
51996.0,STARLINK-3538,PAYLOAD,2023-08-12 09:12:15,15.08840085,0.0001148,53.2162,280.3197,97.5561,262.5561,-1.5222e-05,-5.3e-06,0.0,0 STARLINK-3538,1 51996U 22025AS  23224.38350977 -.00000530  00000-0 -15222-4 0  9992,2 51996  53.2162 280.3197 0001148  97.5561 262.5561 15.08840085 80484,6917.88,95.438,540.539,538.951,0.0
51996.0,STARLINK-3538,PAYLOAD,2023-08-13 12:13:48,15.08843203,0.0001163,53.2162,275.2653,99.4505,260.6618,0.00011572,1.554e-05,0.0,0 STARLINK-3538,1 51996U 22025AS  23225.50958915  .00001554  00000-0  11572-3 0  9991,2 51996  53.2162 275.2653 0001163  99.4505 260.6618 15.08843203 80656,6917.871,95.437,540.54,538.931,0.0
51996.0,STARLINK-3538,PAYLOAD,2023-08-14 08:53:49,15.08839908,0.0001182,53.216,271.3999,95.4656,264.6471,9.3122e-05,1.195e-05,0.0,0 STARLINK-3538,1 51996U 22025AS  23226.37071194  .00001195  00000-0  93122-4 0  9995,2 51996  53.2160 271.3999 0001182  95.4656 264.6471 15.08839908 80780,6917.881,95.438,540.563,538.928,0.0
